[{"OBJECT_NAME":"SEEDS II (CO-66)","OBJECT_ID":"2008-021J","EPOCH":"2026-03-09T22:06:22.421376","MEAN_MOTION":15.29097236,"ECCENTRICITY":0.00014475,"INCLINATION":97.7519,"RA_OF_ASC_NODE":62.3611,"ARG_OF_PERICENTER":359.2618,"MEAN_ANOMALY":0.8619,"EPHEMERIS_TYPE":0,"CLASSIFICATION_TYPE":"U","NORAD_CAT_ID":32791,"ELEMENT_SET_NO":999,"REV_AT_EPOCH":97210,"BSTAR":0.00084213052,"MEAN_MOTION_DOT":0.00023758,"MEAN_MOTION_DDOT":0},{"OBJECT_NAME":"STARLINK-30071","OBJECT_ID":"2023-067W","EPOCH":"2026-03-09T22:00:01.999584","MEAN_MOTION":15.13965788,"ECCENTRICITY":0.00017095,"INCLINATION":43.0002,"RA_OF_ASC_NODE":272.6335,"ARG_OF_PERICENTER":262.7038,"MEAN_ANOMALY":8.0429,"EPHEMERIS_TYPE":0,"CLASSIFICATION_TYPE":"U","NORAD_CAT_ID":56708,"ELEMENT_SET_NO":999,"REV_AT_EPOCH":567,"BSTAR":0.063027709,"MEAN_MOTION_DOT":0.01258349,"MEAN_MOTION_DDOT":0}]
